MOLNIYA 3-24            
1 15738U 85040A   17345.62780609 -.00000102  00000-0  12477-1 0  9995
2 15738  64.4675 351.2499 6538874 261.8571 334.5527  2.55630220261713
